ORBCOMM FM108           
1 41187U 15081J   24218.51729799  .00001903  00000+0  45810-3 0  9995
2 41187  47.0036 156.4337 0002895 303.2820  56.7788 14.56800573460745
ORBCOMM FM117           
1 41188U 15081K   24218.55176336  .00001955  00000+0  46974-3 0  9992
2 41188  46.9997 155.1357 0003564 313.5192  46.5396 14.56787865460849
ORBCOMM FM116           
1 41189U 15081L   24218.40308168  .00001166  00000+0  29518-3 0  9996
2 41189  47.0007 245.6556 0002028   2.7743 357.3152 14.56797684459585
